{"type": "FeatureCollection", "features": [ {"type": "Feature", "properties": {"norad_id": 33799, "name": "COSMOS 2251 DEB", "group": "cosmos-2251-debris", "lat": -14.481146955973333, "lon": -119.8156960116872, "alt_km": 629.6914708144077, "timestamp": "2025-12-25T20:42:39.080304+00:00", "meta": {"OBJECT_NAME": "COSMOS 2251 DEB", "OBJECT_ID": "1993-036AQ", "EPOCH": "2025-12-25T05:29:12.926112", "MEAN_MOTION": 14.79807515, "ECCENTRICITY": 0.00221353, "INCLINATION": 74.0314, "RA_OF_ASC_NODE": 57.1921, "ARG_OF_PERICENTER": 123.2586, "MEAN_ANOMALY": 293.5848, "EPHEMERIS_TYPE": 0, "CLASSIFICATION_TYPE": "U", "NORAD_CAT_ID": 33799, "ELEMENT_SET_NO": 999, "REV_AT_EPOCH": 88996, "BSTAR": 0.0013644716, "MEAN_MOTION_DOT": 0.000103, "MEAN_MOTION_DDOT": 0}, "tle": {"line1": "1 33799U 93036AQ  25359.22862183  .00010300  00000+0  13645-2 0  9992", "line2": "2 33799  74.0314  57.1921 0022135 123.2586 293.5848 14.79807515889963"}}, "geometry": {"type": "Point", "coordinates": [-119.8156960116872, -14.481146955973333]}}, {"type": "Feature", "properties": {"norad_id": 33805, "name": "COSMOS 2251 DEB", "group": "cosmos-2251-debris", "lat": 17.407794191521972, "lon": -68.48287777986461, "alt_km": 702.3194255165945, "timestamp": "2025-12-25T20:42:39.080315+00:00", "meta": {"OBJECT_NAME": "COSMOS 2251 DEB", "OBJECT_ID": "1993-036AW", "EPOCH": "2025-12-25T04:09:31.443840", "MEAN_MOTION": 14.57882455, "ECCENTRICITY": 0.00598962, "INCLINATION": 74.0313, "RA_OF_ASC_NODE": 287.6778, "ARG_OF_PERICENTER": 113.0166, "MEAN_ANOMALY": 247.7331, "EPHEMERIS_TYPE": 0, "CLASSIFICATION_TYPE": "U", "NORAD_CAT_ID": 33805, "ELEMENT_SET_NO": 999, "REV_AT_EPOCH": 89408, "BSTAR": 0.00024148706, "MEAN_MOTION_DOT": 1.104e-05, "MEAN_MOTION_DDOT": 0}, "tle": {"line1": "1 33805U 93036AW  25359.17328060  .00001104  00000+0  24149-3 0  9999", "line2": "2 33805  74.0313 287.6778 0059896 113.0166 247.7331 14.57882455894084"}}, "geometry": {"type": "Point", "coordinates": [-68.48287777986461, 17.407794191521972]}}, {"type": "Feature", "properties": {"norad_id": 33811, "name": "COSMOS 2251 DEB", "group": "cosmos-2251-debris", "lat": -25.5848842212098, "lon": -92.5488469074229, "alt_km": 534.679068742149, "timestamp": "2025-12-25T20:42:39.080325+00:00", "meta": {"OBJECT_NAME": "COSMOS 2251 DEB", "OBJECT_ID": "1993-036BC", "EPOCH": "2025-12-25T05:34:21.057888", "MEAN_MOTION": 15.05634141, "ECCENTRICITY": 0.00309792, "INCLINATION": 73.8381, "RA_OF_ASC_NODE": 276.7409, "ARG_OF_PERICENTER": 355.1331, "MEAN_ANOMALY": 160.8784, "EPHEMERIS_TYPE": 0, "CLASSIFICATION_TYPE": "U", "NORAD_CAT_ID": 33811, "ELEMENT_SET_NO": 999, "REV_AT_EPOCH": 90206, "BSTAR": 0.0011888903, "MEAN_MOTION_DOT": 0.00017348, "MEAN_MOTION_DDOT": 0}, "tle": {"line1": "1 33811U 93036BC  25359.23218817  .00017348  00000+0  11889-2 0  9994", "line2": "2 33811  73.8381 276.7409 0030979 355.1331 160.8784 15.05634141902063"}}, "geometry": {"type": "Point", "coordinates": [-92.5488469074229, -25.5848842212098]}}, {"type": "Feature", "properties": {"norad_id": 33815, "name": "COSMOS 2251 DEB", "group": "cosmos-2251-debris", "lat": -2.6225605101234986, "lon": 148.19234031424318, "alt_km": 501.40739543935706, "timestamp": "2025-12-25T20:42:39.080351+00:00", "meta": {"OBJECT_NAME": "COSMOS 2251 DEB", "OBJECT_ID": "1993-036BG", "EPOCH": "2025-12-24T20:02:16.889280", "MEAN_MOTION": 15.21390355, "ECCENTRICITY": 0.00036759, "INCLINATION": 73.9533, "RA_OF_ASC_NODE": 151.1177, "ARG_OF_PERICENTER": 328.7614, "MEAN_ANOMALY": 159.811, "EPHEMERIS_TYPE": 0, "CLASSIFICATION_TYPE": "U", "NORAD_CAT_ID": 33815, "ELEMENT_SET_NO": 999, "REV_AT_EPOCH": 88554, "BSTAR": 0.0078842257, "MEAN_MOTION_DOT": 0.0018137, "MEAN_MOTION_DDOT": 0}, "tle": {"line1": "1 33815U 93036BG  25358.83491770  .00181370  00000+0  78842-2 0  9993", "line2": "2 33815  73.9533 151.1177 0003675 328.7614 159.8110 15.21390355885546"}}, "geometry": {"type": "Point", "coordinates": [148.19234031424318, -2.6225605101234986]}}, {"type": "Feature", "properties": {"norad_id": 33816, "name": "COSMOS 2251 DEB", "group": "cosmos-2251-debris", "lat": -8.78465089581884, "lon": -94.28694665743765, "alt_km": 974.7722073238392, "timestamp": "2025-12-25T20:42:39.080363+00:00", "meta": {"OBJECT_NAME": "COSMOS 2251 DEB", "OBJECT_ID": "1993-036BH", "EPOCH": "2025-12-25T07:39:55.794528", "MEAN_MOTION": 13.81796891, "ECCENTRICITY": 0.02641281, "INCLINATION": 73.8953, "RA_OF_ASC_NODE": 84.0752, "ARG_OF_PERICENTER": 94.5125, "MEAN_ANOMALY": 268.6219, "EPHEMERIS_TYPE": 0, "CLASSIFICATION_TYPE": "U", "NORAD_CAT_ID": 33816, "ELEMENT_SET_NO": 999, "REV_AT_EPOCH": 84847, "BSTAR": 0.00035486119, "MEAN_MOTION_DOT": 4.74e-06, "MEAN_MOTION_DDOT": 0}, "tle": {"line1": "1 33816U 93036BH  25359.31939577  .00000474  00000+0  35486-3 0  9993", "line2": "2 33816  73.8953  84.0752 0264128  94.5125 268.6219 13.81796891848471"}}, "geometry": {"type": "Point", "coordinates": [-94.28694665743765, -8.78465089581884]}}, {"type": "Feature", "properties": {"norad_id": 33818, "name": "COSMOS 2251 DEB", "group": "cosmos-2251-debris", "lat": -67.62208503171998, "lon": 95.20734572718553, "alt_km": 548.1974125505012, "timestamp": "2025-12-25T20:42:39.080374+00:00", "meta": {"OBJECT_NAME": "COSMOS 2251 DEB", "OBJECT_ID": "1993-036BK", "EPOCH": "2025-12-24T20:09:40.929120", "MEAN_MOTION": 15.13486245, "ECCENTRICITY": 0.00241424, "INCLINATION": 74.0795, "RA_OF_ASC_NODE": 141.215, "ARG_OF_PERICENTER": 124.0784, "MEAN_ANOMALY": 350.7317, "EPHEMERIS_TYPE": 0, "CLASSIFICATION_TYPE": "U", "NORAD_CAT_ID": 33818, "ELEMENT_SET_NO": 999, "REV_AT_EPOCH": 90045, "BSTAR": 0.0027987586, "MEAN_MOTION_DOT": 0.00050768, "MEAN_MOTION_DDOT": 0}, "tle": {"line1": "1 33818U 93036BK  25358.84005705  .00050768  00000+0  27988-2 0  9997", "line2": "2 33818  74.0795 141.2150 0024142 124.0784 350.7317 15.13486245900453"}}, "geometry": {"type": "Point", "coordinates": [95.20734572718553, -67.62208503171998]}}, {"type": "Feature", "properties": {"norad_id": 33819, "name": "COSMOS 2251 DEB", "group": "cosmos-2251-debris", "lat": -17.421135566550095, "lon": 11.21316624793145, "alt_km": 846.5407869743094, "timestamp": "2025-12-25T20:42:39.080392+00:00", "meta": {"OBJECT_NAME": "COSMOS 2251 DEB", "OBJECT_ID": "1993-036BL", "EPOCH": "2025-12-25T03:31:48.080928", "MEAN_MOTION": 14.32261297, "ECCENTRICITY": 0.00895197, "INCLINATION": 74.1772, "RA_OF_ASC_NODE": 187.4026, "ARG_OF_PERICENTER": 44.9861, "MEAN_ANOMALY": 62.9649, "EPHEMERIS_TYPE": 0, "CLASSIFICATION_TYPE": "U", "NORAD_CAT_ID": 33819, "ELEMENT_SET_NO": 999, "REV_AT_EPOCH": 87673, "BSTAR": 0.00050552574, "MEAN_MOTION_DOT": 1.401e-05, "MEAN_MOTION_DDOT": 0}, "tle": {"line1": "1 33819U 93036BL  25359.14708427  .00001401  00000+0  50553-3 0  9998", "line2": "2 33819  74.1772 187.4026 0089519  44.9861  62.9649 14.32261297876730"}}, "geometry": {"type": "Point", "coordinates": [11.21316624793145, -17.421135566550095]}}, {"type": "Feature", "properties": {"norad_id": 33821, "name": "COSMOS 2251 DEB", "group": "cosmos-2251-debris", "lat": -31.835141505912166, "lon": 104.83673833653083, "alt_km": 526.9936012280641, "timestamp": "2025-12-25T20:42:39.080402+00:00", "meta": {"OBJECT_NAME": "COSMOS 2251 DEB", "OBJECT_ID": "1993-036BN", "EPOCH": "2025-12-25T00:24:15.974784", "MEAN_MOTION": 15.26070285, "ECCENTRICITY": 0.00493592, "INCLINATION": 74.0305, "RA_OF_ASC_NODE": 116.8684, "ARG_OF_PERICENTER": 146.067, "MEAN_ANOMALY": 214.3706, "EPHEMERIS_TYPE": 0, "CLASSIFICATION_TYPE": "U", "NORAD_CAT_ID": 33821, "ELEMENT_SET_NO": 999, "REV_AT_EPOCH": 75188, "BSTAR": 0.0013466315, "MEAN_MOTION_DOT": 0.00036085, "MEAN_MOTION_DDOT": 0}, "tle": {"line1": "1 33821U 93036BN  25359.01685156  .00036085  00000+0  13466-2 0  9997", "line2": "2 33821  74.0305 116.8684 0049359 146.0670 214.3706 15.26070285751884"}}, "geometry": {"type": "Point", "coordinates": [104.83673833653083, -31.835141505912166]}}, {"type": "Feature", "properties": {"norad_id": 33822, "name": "COSMOS 2251 DEB", "group": "cosmos-2251-debris", "lat": -19.839671768530263, "lon": -3.570713296399545, "alt_km": 745.882097048584, "timestamp": "2025-12-25T20:42:39.080413+00:00", "meta": {"OBJECT_NAME": "COSMOS 2251 DEB", "OBJECT_ID": "1993-036BP", "EPOCH": "2025-12-24T22:25:41.074752", "MEAN_MOTION": 14.13133115, "ECCENTRICITY": 0.015264, "INCLINATION": 74.0682, "RA_OF_ASC_NODE": 172.1526, "ARG_OF_PERICENTER": 215.5067, "MEAN_ANOMALY": 304.0164, "EPHEMERIS_TYPE": 0, "CLASSIFICATION_TYPE": "U", "NORAD_CAT_ID": 33822, "ELEMENT_SET_NO": 999, "REV_AT_EPOCH": 86226, "BSTAR": 0.0016321, "MEAN_MOTION_DOT": 3.385e-05, "MEAN_MOTION_DDOT": 0}, "tle": {"line1": "1 33822U 93036BP  25358.93450318  .00003385  00000+0  16321-2 0  9998", "line2": "2 33822  74.0682 172.1526 0152640 215.5067 304.0164 14.13133115862260"}}, "geometry": {"type": "Point", "coordinates": [-3.570713296399545, -19.839671768530263]}}, {"type": "Feature", "properties": {"norad_id": 33823, "name": "COSMOS 2251 DEB", "group": "cosmos-2251-debris", "lat": 68.71973339298953, "lon": 174.56823577736736, "alt_km": 1041.6252863064547, "timestamp": "2025-12-25T20:42:39.080423+00:00", "meta": {"OBJECT_NAME": "COSMOS 2251 DEB", "OBJECT_ID": "1993-036BQ", "EPOCH": "2025-12-24T19:20:41.845632", "MEAN_MOTION": 13.98980632, "ECCENTRICITY": 0.02094741, "INCLINATION": 73.8099, "RA_OF_ASC_NODE": 128.1829, "ARG_OF_PERICENTER": 251.4181, "MEAN_ANOMALY": 263.9686, "EPHEMERIS_TYPE": 0, "CLASSIFICATION_TYPE": "U", "NORAD_CAT_ID": 33823, "ELEMENT_SET_NO": 999, "REV_AT_EPOCH": 85778, "BSTAR": 0.00082712522, "MEAN_MOTION_DOT": 1.415e-05, "MEAN_MOTION_DDOT": 0}, "tle": {"line1": "1 33823U 93036BQ  25358.80603988  .00001415  00000+0  82713-3 0  9999", "line2": "2 33823  73.8099 128.1829 0209474 251.4181 263.9686 13.98980632857780"}}, "geometry": {"type": "Point", "coordinates": [174.56823577736736, 68.71973339298953]}}]}